NORAD_CAT_ID,OBJECT_NAME,OBJECT_TYPE,EPOCH,MEAN_MOTION,ECCENTRICITY,INCLINATION,RA_OF_ASC_NODE,ARG_OF_PERICENTER,MEAN_ANOMALY,BSTAR,MEAN_MOTION_DOT,MEAN_MOTION_DDOT,TLE_LINE0,TLE_LINE1,TLE_LINE2,SEMIMAJOR_AXIS,PERIOD,APOGEE,PERIGEE,DECAYED
55955.0,STARLINK-5878,PAYLOAD,2024-05-17 08:59:37,14.98337533,0.0002927,69.9985,131.9053,270.5206,89.5618,5.2086e-05,5.29e-06,0.0,0 STARLINK-5878,1 55955U 23037AT  24138.37474287  .00000529  00000-0  52086-4 0  9995,2 55955  69.9985 131.9053 0002927 270.5206  89.5618 14.98337533 65410,6950.17,96.107,574.069,570.0,0.0
55955.0,STARLINK-5878,PAYLOAD,2024-05-17 17:00:18,14.98324531,0.0002772,69.9987,131.064,269.1533,90.9308,7.532e-05,8.06e-06,0.0,0 STARLINK-5878,1 55955U 23037AT  24138.70854991  .00000806  00000-0  75320-4 0  9990,2 55955  69.9987 131.0640 0002772 269.1533  90.9308 14.98324531 65809,6950.21,96.107,574.001,570.148,0.0
55955.0,STARLINK-5878,PAYLOAD,2024-05-18 09:01:39,14.9832964,0.0003021,69.998,129.3798,268.4178,91.6635,-0.00012976,-1.641e-05,0.0,0 STARLINK-5878,1 55955U 23037AT  24139.37614987 -.00001641  00000-0 -12976-3 0  9990,2 55955  69.9980 129.3798 0003021 268.4178  91.6635 14.98329640 65561,6950.194,96.107,574.159,569.959,0.0
55955.0,STARLINK-5878,PAYLOAD,2024-05-18 17:02:20,14.98319058,0.0003067,69.9978,128.5374,268.3129,91.7679,-0.00023189,-2.858e-05,0.0,0 STARLINK-5878,1 55955U 23037AT  24139.70995984 -.00002858  00000-0 -23189-3 0  9995,2 55955  69.9978 128.5374 0003067 268.3129  91.7679 14.98319058 65958,6950.227,96.108,574.223,569.96,0.0
55955.0,STARLINK-5878,PAYLOAD,2024-05-19 09:03:41,14.98317837,0.000293,69.998,126.8548,267.6665,92.4158,-0.00016278,-2.034e-05,0.0,0 STARLINK-5878,1 55955U 23037AT  24140.37756452 -.00002034  00000-0 -16278-3 0  9992,2 55955  69.9980 126.8548 0002930 267.6665  92.4158 14.98317837 65717,6950.231,96.108,574.132,570.059,0.0
55955.0,STARLINK-5878,PAYLOAD,2024-05-20 04:17:17,14.98324526,0.0002935,69.9983,124.8349,267.3656,92.7167,7.2141e-05,7.68e-06,0.0,0 STARLINK-5878,1 55955U 23037AT  24141.17867862  .00000768  00000-0  72141-4 0  9991,2 55955  69.9983 124.8349 0002935 267.3656  92.7167 14.98324526 66176,6950.21,96.107,574.115,570.035,0.0
55955.0,STARLINK-5878,PAYLOAD,2024-05-20 09:05:41,14.98329682,0.0002919,69.9981,124.33,267.3619,92.7206,0.0001152,1.282e-05,0.0,0 STARLINK-5878,1 55955U 23037AT  24141.37895460  .00001282  00000-0  11520-3 0  9993,2 55955  69.9981 124.3300 0002919 267.3619  92.7206 14.98329682 65864,6950.194,96.107,574.088,570.03,0.0
55955.0,STARLINK-5878,PAYLOAD,2024-05-21 09:07:41,14.98341291,0.0002957,69.9982,121.8052,267.6055,92.4766,0.00029835,3.47e-05,0.0,0 STARLINK-5878,1 55955U 23037AT  24142.38034084  .00003470  00000-0  29835-3 0  9991,2 55955  69.9982 121.8052 0002957 267.6055  92.4766 14.98341291 66353,6950.158,96.106,574.078,569.968,0.0
55955.0,STARLINK-5878,PAYLOAD,2024-05-22 04:21:18,14.9833671,0.0002607,69.9993,119.7861,260.3401,99.7463,1.1982e-05,5e-07,0.0,0 STARLINK-5878,1 55955U 23037AT  24143.18146738  .00000050  00000-0  11982-4 0  9996,2 55955  69.9993 119.7861 0002607 260.3401  99.7463 14.98336710 66473,6950.172,96.107,573.849,570.225,0.0
55955.0,STARLINK-5878,PAYLOAD,2024-05-22 07:33:34,14.98336812,0.0002605,69.9993,119.4496,260.8231,99.2633,1.0782e-05,3.6e-07,0.0,0 STARLINK-5878,1 55955U 23037AT  24143.31498659  .00000036  00000-0  10782-4 0  9994,2 55955  69.9993 119.4496 0002605 260.8231  99.2633 14.98336812 66150,6950.172,96.107,573.847,570.226,0.0
55955.0,STARLINK-5878,PAYLOAD,2024-05-23 04:23:19,14.98336414,0.0002478,70.0001,117.2623,247.1866,112.9031,-0.00014659,-1.842e-05,0.0,0 STARLINK-5878,1 55955U 23037AT  24144.18286551 -.00001842  00000-0 -14659-3 0  9990,2 55955  70.0001 117.2623 0002478 247.1866 112.9031 14.98336414 66626,6950.173,96.107,573.76,570.316,0.0
55955.0,STARLINK-5878,PAYLOAD,2024-05-23 07:35:35,14.98333785,0.0002496,70.0,116.9256,251.0084,109.0804,-0.00017403,-2.169e-05,0.0,0 STARLINK-5878,1 55955U 23037AT  24144.31638764 -.00002169  00000-0 -17403-3 0  9995,2 55955  70.0000 116.9256 0002496 251.0084 109.0804 14.98333785 66307,6950.181,96.107,573.781,570.311,0.0
55955.0,STARLINK-5878,PAYLOAD,2024-05-24 04:25:20,14.98334038,0.0002696,69.9993,114.7366,259.6988,100.3867,-1.5093e-05,-2.73e-06,0.0,0 STARLINK-5878,1 55955U 23037AT  24145.18426009 -.00000273  00000-0 -15093-4 0  9996,2 55955  69.9993 114.7366 0002696 259.6988 100.3867 14.98334038 66778,6950.18,96.107,573.919,570.172,0.0
55955.0,STARLINK-5878,PAYLOAD,2024-05-24 07:37:35,14.98336563,0.0002759,69.999,114.3992,265.8337,94.2507,1.1803e-05,4.8e-07,0.0,0 STARLINK-5878,1 55955U 23037AT  24145.31777749  .00000048  00000-0  11803-4 0  9994,2 55955  69.9990 114.3992 0002759 265.8337  94.2507 14.98336563 66455,6950.173,96.107,573.955,570.12,0.0
55955.0,STARLINK-5878,PAYLOAD,2024-05-24 22:02:48,14.98327054,0.0002695,69.9992,112.8845,264.5168,95.5684,1.8225e-05,1.24e-06,0.0,0 STARLINK-5878,1 55955U 23037AT  24145.91862228  .00000124  00000-0  18225-4 0  9997,2 55955  69.9992 112.8845 0002695 264.5168  95.5684 14.98327054 66549,6950.202,96.107,573.94,570.194,0.0
55955.0,STARLINK-5878,PAYLOAD,2024-05-25 04:27:21,14.98325374,0.0002748,69.9991,112.2115,264.2304,95.8542,-9.0059e-06,-2e-06,0.0,0 STARLINK-5878,1 55955U 23037AT  24146.18566449 -.00000200  00000-0 -90059-5 0  9996,2 55955  69.9991 112.2115 0002748 264.2304  95.8542 14.98325374 66921,6950.207,96.107,573.982,570.162,0.0
55955.0,STARLINK-5878,PAYLOAD,2024-05-25 07:39:37,14.98326524,0.0002734,69.9992,111.875,263.7681,96.3166,3.2407e-06,-5.4e-07,0.0,0 STARLINK-5878,1 55955U 23037AT  24146.31918363 -.00000054  00000-0  32407-5 0  9996,2 55955  69.9992 111.8750 0002734 263.7681  96.3166 14.98326524 66600,6950.204,96.107,573.969,570.168,0.0
55955.0,STARLINK-5878,PAYLOAD,2024-05-26 04:29:25,14.98294298,0.0002819,69.9988,109.6862,267.9326,92.151,-0.00043608,-5.287e-05,0.0,0 STARLINK-5878,1 55955U 23037AT  24147.18709851 -.00005287  00000-0 -43608-3 0  9999,2 55955  69.9988 109.6862 0002819 267.9326  92.1510 14.98294298 67071,6950.303,96.109,574.128,570.209,0.0
55955.0,STARLINK-5878,PAYLOAD,2024-05-26 07:41:41,14.98292969,0.0002767,69.9989,109.3498,266.5941,93.4902,-0.00043675,-5.295e-05,0.0,0 STARLINK-5878,1 55955U 23037AT  24147.32062160 -.00005295  00000-0 -43675-3 0  9993,2 55955  69.9989 109.3498 0002767 266.5941  93.4902 14.98292969 66750,6950.307,96.109,574.096,570.249,0.0
55955.0,STARLINK-5878,PAYLOAD,2024-05-26 20:30:44,14.98319161,0.0002869,69.9992,108.0043,262.8888,97.1945,-3.1802e-05,-4.72e-06,0.0,0 STARLINK-5878,1 55955U 23037AT  24147.85467893 -.00000472  00000-0 -31802-4 0  9995,2 55955  69.9992 108.0043 0002869 262.8888  97.1945 14.98319161 67177,6950.226,96.108,574.085,570.097,0.0
55955.0,STARLINK-5878,PAYLOAD,2024-05-26 22:06:52,14.98320777,0.0002806,69.9992,107.8367,260.5269,99.5573,-1.9525e-05,-3.26e-06,0.0,0 STARLINK-5878,1 55955U 23037AT  24147.92143796 -.00000326  00000-0 -19525-4 0  9992,2 55955  69.9992 107.8367 0002806 260.5269  99.5573 14.98320777 66843,6950.221,96.108,574.037,570.136,0.0
55955.0,STARLINK-5878,PAYLOAD,2024-05-27 04:31:24,14.98324622,0.0002217,70.001,107.1626,242.2721,117.8213,8.1257e-05,8.77e-06,0.0,0 STARLINK-5878,1 55955U 23037AT  24148.18847418  .00000877  00000-0  81257-4 0  9993,2 55955  70.0010 107.1626 0002217 242.2721 117.8213 14.98324622 67225,6950.21,96.107,573.615,570.534,0.0
55955.0,STARLINK-5878,PAYLOAD,2024-05-27 07:43:39,14.98375535,0.0002039,70.001,106.8262,238.0968,121.9993,-0.00078007,-9.399e-05,0.0,0 STARLINK-5878,1 55955U 23037AT  24148.32198230 -.00009399  00000-0 -78007-3 0  9998,2 55955  70.0010 106.8262 0002039 238.0968 121.9993 14.98375535 67247,6950.052,96.104,573.334,570.5,0.0
55955.0,STARLINK-5878,PAYLOAD,2024-05-27 14:08:11,14.98335447,0.0002741,70.0001,106.152,259.5812,100.5038,0.00011961,1.335e-05,0.0,0 STARLINK-5878,1 55955U 23037AT  24148.58902600  .00001335  00000-0  11961-3 0  9996,2 55955  70.0001 106.1520 0002741 259.5812 100.5038 14.98335447 66940,6950.176,96.107,573.946,570.136,0.0
55955.0,STARLINK-5878,PAYLOAD,2024-05-27 20:32:43,14.9833782,0.0002507,69.9996,105.4782,255.0186,105.0696,0.00019661,2.254e-05,0.0,0 STARLINK-5878,1 55955U 23037AT  24148.85606104  .00002254  00000-0  19661-3 0  9992,2 55955  69.9996 105.4782 0002507 255.0186 105.0696 14.98337820 67327,6950.169,96.106,573.776,570.291,0.0
55955.0,STARLINK-5878,PAYLOAD,2024-05-27 22:08:51,14.98338348,0.0002563,69.9996,105.3099,256.7935,103.2938,0.00019458,2.23e-05,0.0,0 STARLINK-5878,1 55955U 23037AT  24148.92282049  .00002230  00000-0  19458-3 0  9996,2 55955  69.9996 105.3099 0002563 256.7935 103.2938 14.98338348 66996,6950.167,96.106,573.813,570.251,0.0
55955.0,STARLINK-5878,PAYLOAD,2024-05-28 07:45:39,14.98339366,0.0002561,69.9995,104.3,255.1191,104.9685,0.00018506,2.116e-05,0.0,0 STARLINK-5878,1 55955U 23037AT  24149.32337819  .00002116  00000-0  18506-3 0  9993,2 55955  69.9995 104.3000 0002561 255.1191 104.9685 14.98339366 67057,6950.164,96.106,573.809,570.249,0.0
55955.0,STARLINK-5878,PAYLOAD,2024-05-28 22:10:53,14.98336551,0.0002556,69.9993,102.7841,252.3671,107.7209,-4.2202e-05,-5.97e-06,0.0,0 STARLINK-5878,1 55955U 23037AT  24149.92422704 -.00000597  00000-0 -42202-4 0  9991,2 55955  69.9993 102.7841 0002556 252.3671 107.7209 14.98336551 67142,6950.173,96.107,573.814,570.261,0.0
55955.0,STARLINK-5878,PAYLOAD,2024-05-29 04:35:25,14.983348,0.000257,69.9994,102.1109,254.1018,105.9858,-6.1282e-05,-8.24e-06,0.0,0 STARLINK-5878,1 55955U 23037AT  24150.19126734 -.00000824  00000-0 -61282-4 0  9998,2 55955  69.9994 102.1109 0002570 254.1018 105.9858 14.98334800 67522,6950.178,96.107,573.829,570.257,0.0
55955.0,STARLINK-5878,PAYLOAD,2024-05-29 06:11:33,14.98335158,0.0002566,69.9994,101.9426,254.1119,105.9758,-5.6692e-05,-7.69e-06,0.0,0 STARLINK-5878,1 55955U 23037AT  24150.25802667 -.00000769  00000-0 -56692-4 0  9998,2 55955  69.9994 101.9426 0002566 254.1119 105.9758 14.98335158 67197,6950.177,96.107,573.825,570.259,0.0
